{
    "links": {
        "self": "http://www.neowsapp.com/rest/v1/neo/3674178?api_key=iIulBulltgU6a56xZRHN4H3l9WmuAYTsLGpBGhQ2"
    },
    "id": "3674178",
    "neo_reference_id": "3674178",
    "name": "(2014 MT41)",
    "designation": "2014 MT41",
    "nasa_jpl_url": "http://ssd.jpl.nasa.gov/sbdb.cgi?sstr=3674178",
    "absolute_magnitude_h": 26.5,
    "estimated_diameter": {
        "kilometers": {
            "estimated_diameter_min": 0.0133215567,
            "estimated_diameter_max": 0.0297879063
        },
        "meters": {
            "estimated_diameter_min": 13.3215566698,
            "estimated_diameter_max": 29.7879062798
        },
        "miles": {
            "estimated_diameter_min": 0.008277629,
            "estimated_diameter_max": 0.0185093411
        },
        "feet": {
            "estimated_diameter_min": 43.7058959846,
            "estimated_diameter_max": 97.7293544391
        }
    },
    "is_potentially_hazardous_asteroid": false,
    "close_approach_data": [
        {
            "close_approach_date": "2014-06-21",
            "close_approach_date_full": "2014-Jun-21 17:22",
            "epoch_date_close_approach": 1403371320000,
            "relative_velocity": {
                "kilometers_per_second": "6.9021929564",
                "kilometers_per_hour": "24847.8946428705",
                "miles_per_hour": "15439.5154240658"
            },
            "miss_distance": {
                "astronomical": "0.011314508",
                "lunar": "4.401343612",
                "kilometers": "1692626.29689796",
                "miles": "1051749.210633448"
            },
            "orbiting_body": "Earth"
        },
        {
            "close_approach_date": "2030-07-26",
            "close_approach_date_full": "2030-Jul-26 06:16",
            "epoch_date_close_approach": 1911276960000,
            "relative_velocity": {
                "kilometers_per_second": "13.1452861402",
                "kilometers_per_hour": "47323.0301047283",
                "miles_per_hour": "29404.6905670185"
            },
            "miss_distance": {
                "astronomical": "0.2066386147",
                "lunar": "80.3824211183",
                "kilometers": "30912696.618870689",
                "miles": "19208258.9801619482"
            },
            "orbiting_body": "Earth"
        }
    ],
    "orbital_data": {
        "orbit_id": "4",
        "orbit_determination_date": "2017-04-06 08:39:51",
        "first_observation_date": "2014-06-29",
        "last_observation_date": "2014-07-03",
        "data_arc_in_days": 4,
        "observations_used": 15,
        "orbit_uncertainty": "8",
        "minimum_orbit_intersection": ".0110164",
        "jupiter_tisserand_invariant": "3.773",
        "epoch_osculation": "2456839.5",
        "eccentricity": ".470840786990366",
        "semi_major_axis": "1.926399628228654",
        "inclination": "3.392726127079909",
        "ascending_node_longitude": "275.6593928562722",
        "orbital_period": "976.6028908673934",
        "perihelion_distance": "1.019372111215526",
        "perihelion_argument": "342.9705969539585",
        "aphelion_distance": "2.833427145241783",
        "perihelion_time": "2456820.414331471330",
        "mean_anomaly": "7.035449858456487",
        "mean_motion": ".3686247535886949",
        "equinox": "J2000",
        "orbit_class": {
            "orbit_class_type": "AMO",
            "orbit_class_description": "Near-Earth asteroid orbits similar to that of 1221 Amor",
            "orbit_class_range": "1.017 AU < q (perihelion) < 1.3 AU"
        }
    },
    "is_sentry_object": false
}